      2.10          N: GNSS NAV DATA                        RINEX VERSION / TYPE
fic2rin                                 05/12/2021 00:17:15 PGM / RUN BY / DATE
                                                            END OF HEADER
10 21  5 11 18  0  0.0-1.199156977236e-04-7.617018127348e-12 0.000000000000e+00
    7.200000000000e+01 3.350000000000e+01 4.379110978978e-09-1.559310307419e+00
    1.683831214905e-06 6.604422698729e-03 7.349997758865e-06 5.153667663574e+03
    2.376000000000e+05 6.891787052155e-08-2.152051468325e+00-1.508742570877e-07
    9.688531419937e-01 2.447187500000e+02-2.561331705335e+00-7.839612265604e-09
    4.118028675281e-10 1.000000000000e+00 2.157000000000e+03 0.000000000000e+00
    2.400000000000e+00 0.000000000000e+00 2.328306436539e-09 7.200000000000e+01
    2.304000000000e+05 4.000000000000e+00
29 21  5 11 18  0  0.0-3.453269600868e-04-6.480149750132e-12 0.000000000000e+00
    2.100000000000e+01-8.887500000000e+01 4.344466678761e-09 2.833029772273e+00
   -4.498288035393e-06 1.821088604629e-03 3.065913915634e-06 5.153641460419e+03
    2.376000000000e+05 1.061707735062e-07 2.112600925760e+00 4.284083843231e-08
    9.839196021665e-01 3.337812500000e+02 2.130192340113e+00-8.139267604595e-09
   -2.528676758108e-10 1.000000000000e+00 2.157000000000e+03 0.000000000000e+00
    2.400000000000e+00 0.000000000000e+00-9.778887033463e-09 2.100000000000e+01
    2.304000000000e+05 4.000000000000e+00
16 21  5 11 18  0  0.0-3.235768526793e-04-6.025402399246e-12 0.000000000000e+00
    1.100000000000e+01 9.115625000000e+01 4.461614415577e-09-2.694114222591e+00
    4.468485713005e-06 1.221402443480e-02 3.047287464142e-06 5.153694475174e+03
    2.376000000000e+05 6.519258022308e-08 1.082335941328e+00-2.291053533554e-07
    9.738168683871e-01 3.300312500000e+02 6.781816273641e-01-8.060692903071e-09
    3.868018261344e-10 1.000000000000e+00 2.157000000000e+03 0.000000000000e+00
    2.400000000000e+00 0.000000000000e+00-1.024454832077e-08 1.100000000000e+01
    2.304000000000e+05 4.000000000000e+00
31 21  5 11 18  0  0.0-1.167086884379e-04-2.160049916711e-12 0.000000000000e+00
    2.100000000000e+01 4.959375000000e+01 4.261963242162e-09-6.681608067567e-01
    2.743676304817e-06 9.932782733813e-03 1.059658825397e-05 5.153792253494e+03
    2.376000000000e+05 2.067536115646e-07-2.955115000973e-02 0.000000000000e+00
    9.565248665515e-01 1.682500000000e+02 2.621145886161e-01-7.914615389785e-09
   -8.893227581482e-11 1.000000000000e+00 2.157000000000e+03 0.000000000000e+00
    2.400000000000e+00 0.000000000000e+00-1.303851604462e-08 2.100000000000e+01
    2.304000000000e+05 4.000000000000e+00
30 21  5 11 18  0  0.0-4.247277975082e-04-5.002220859751e-12 0.000000000000e+00
    1.900000000000e+01 5.603125000000e+01 4.694838416008e-09-2.535792252669e-01
    2.991408109665e-06 5.190934287384e-03 1.141615211964e-05 5.153714181900e+03
    2.376000000000e+05 1.043081283569e-07-2.913318553697e-02 3.725290298462e-08
    9.374198513224e-01 1.457812500000e+02-2.790919981111e+00-8.084979628997e-09
   -1.210764718925e-10 1.000000000000e+00 2.157000000000e+03 0.000000000000e+00
    2.400000000000e+00 0.000000000000e+00 3.725290298462e-09 1.900000000000e+01
    2.304000000000e+05 4.000000000000e+00
32 21  5 11 18  0  0.0 2.138176932931e-05-5.684341886081e-13 0.000000000000e+00
    2.800000000000e+01-3.150000000000e+01 4.677337687032e-09-2.891742669832e+00
   -1.581385731697e-06 4.945733235218e-03 6.012618541718e-06 5.153664470673e+03
    2.376000000000e+05-1.303851604462e-08-1.108979929328e+00-5.215406417847e-08
    9.569367540626e-01 2.610312500000e+02-2.371421558289e+00-8.044977962767e-09
   -3.160845947635e-10 1.000000000000e+00 2.157000000000e+03 0.000000000000e+00
    2.400000000000e+00 0.000000000000e+00 4.656612873077e-10 2.800000000000e+01
    2.304000000000e+05 4.000000000000e+00
17 21  5 11 18  0  0.0 4.407749511302e-04 6.139089236967e-12 0.000000000000e+00
    1.700000000000e+01-9.928125000000e+01 4.326965949786e-09 2.673812949990e+00
   -4.988163709641e-06 1.334694947582e-02 2.747401595116e-06 5.153592624664e+03
    2.376000000000e+05 1.844018697739e-07 2.100165687599e+00-1.173466444016e-07
    9.820598690212e-01 3.340312500000e+02-1.568636666185e+00-7.956760002420e-09
   -4.132314984649e-10 1.000000000000e+00 2.157000000000e+03 0.000000000000e+00
    2.400000000000e+00 0.000000000000e+00-1.117587089539e-08 1.700000000000e+01
    2.304000000000e+05 4.000000000000e+00
12 21  5 11 18  0  0.0-3.971625119448e-05-5.115907697473e-12 0.000000000000e+00
    4.400000000000e+01 9.590625000000e+01 4.552689637797e-09-8.658777400606e-01
    5.239620804787e-06 8.447704254650e-03 4.177913069725e-06 5.153744991302e+03
    2.376000000000e+05-6.519258022308e-08 1.063578338421e+00 1.490116119385e-07
    9.737489187681e-01 3.115000000000e+02 1.213584145714e+00-8.294988376704e-09
    3.857303529318e-10 1.000000000000e+00 2.157000000000e+03 0.000000000000e+00
    2.400000000000e+00 0.000000000000e+00-1.257285475731e-08 4.400000000000e+01
    2.304000000000e+05 4.000000000000e+00
27 21  5 11 18  0  0.0-1.283111050725e-04-6.593836587854e-12 0.000000000000e+00
    6.800000000000e+01-8.540625000000e+01 4.424470011221e-09 2.645795970948e+00
   -4.528090357780e-06 9.429746074602e-03 3.024935722351e-06 5.153682153702e+03
    2.376000000000e+05-1.210719347000e-07 2.039521897633e+00-1.415610313416e-07
    9.758374859482e-01 3.299687500000e+02 6.199869553681e-01-8.039263439020e-09
   -2.585821995580e-10 1.000000000000e+00 2.157000000000e+03 0.000000000000e+00
    2.400000000000e+00 0.000000000000e+00 1.862645149231e-09 6.800000000000e+01
    2.304000000000e+05 4.000000000000e+00
19 21  5 11 18  0  0.0-1.306645572186e-06 5.002220859751e-12 0.000000000000e+00
    3.600000000000e+01-9.612500000000e+01 4.399826127562e-09-1.124276256356e+00
   -4.848465323448e-06 9.255949757062e-03 3.920868039131e-06 5.153629354477e+03
    2.376000000000e+05-1.769512891769e-07 2.145355184643e+00 3.352761268616e-08
    9.806029152589e-01 3.163437500000e+02 1.828746015435e+00-8.278916278665e-09
   -3.092985978138e-10 1.000000000000e+00 2.157000000000e+03 0.000000000000e+00
    2.400000000000e+00 0.000000000000e+00-1.536682248116e-08 3.600000000000e+01
    2.304000000000e+05 4.000000000000e+00
22 21  5 11 18  0  0.0-6.167967803776e-04 9.322320693173e-12 0.000000000000e+00
    8.600000000000e+01 3.553125000000e+01 5.235932383315e-09 1.698170191605e+00
    1.756474375725e-06 7.046952261589e-03 6.984919309616e-06 5.153536327362e+03
    2.376000000000e+05 1.583248376846e-07-2.248110749488e+00 5.401670932770e-08
    9.345921652636e-01 2.263125000000e+02-9.757717307064e-01-8.264629969297e-09
    3.903734034763e-10 1.000000000000e+00 2.157000000000e+03 0.000000000000e+00
    2.400000000000e+00 0.000000000000e+00-1.769512891769e-08 8.600000000000e+01
    2.304000000000e+05 4.000000000000e+00
13 21  5 11 18  0  0.0 1.307846978307e-04 4.774847184308e-12 0.000000000000e+00
    7.600000000000e+01-2.828125000000e+01 4.481615248692e-09 2.104045611134e+00
   -1.462176442146e-06 4.937574500218e-03 6.724148988724e-06 5.153674463272e+03
    2.376000000000e+05-1.303851604462e-08-9.705210924305e-01-1.303851604462e-07
    9.678665822252e-01 2.535000000000e+02 9.755408690672e-01-7.983546832485e-09
   -4.025167664390e-10 1.000000000000e+00 2.157000000000e+03 0.000000000000e+00
    2.400000000000e+00 0.000000000000e+00-1.117587089539e-08 7.600000000000e+01
    2.304000000000e+05 4.000000000000e+00
21 21  5 11 18  0  0.0 1.174136996269e-04 2.614797267597e-12 0.000000000000e+00
    6.500000000000e+01-8.631250000000e+01 4.248748405997e-09 2.839162380452e+00
   -4.149973392487e-06 2.407266234513e-02 1.118518412113e-05 5.153698398590e+03
    2.376000000000e+05 4.116445779800e-07 3.013504255702e+00 2.477318048477e-07
    9.573960328048e-01 1.534375000000e+02-1.141347701347e+00-7.532813771930e-09
   -1.321483616526e-10 1.000000000000e+00 2.157000000000e+03 0.000000000000e+00
    2.400000000000e+00 0.000000000000e+00-1.024454832077e-08 6.500000000000e+01
    2.304000000000e+05 4.000000000000e+00
26 21  5 11 18  0  0.0 8.398527279496e-05 5.002220859751e-12 0.000000000000e+00
    7.300000000000e+01 1.073437500000e+02 5.093069289636e-09-1.857543028249e+00
    5.299225449562e-06 5.871260422282e-03 3.943219780922e-06 5.153558794022e+03
    2.376000000000e+05 5.587935447693e-08 9.484697938368e-01-6.146728992462e-08
    9.421265781193e-01 2.935625000000e+02 3.108756319150e-01-8.454995041624e-09
    4.289464387695e-10 1.000000000000e+00 2.157000000000e+03 0.000000000000e+00
    2.400000000000e+00 0.000000000000e+00 6.984919309616e-09 7.300000000000e+01
    2.304000000000e+05 4.000000000000e+00
20 21  5 11 18  0  0.0 5.222922191024e-04-3.410605131648e-13 0.000000000000e+00
    9.400000000000e+01 2.737500000000e+01 5.162715047804e-09 6.094463980030e-01
    1.369044184685e-06 6.053198478185e-03 7.830560207367e-06 5.151710540771e+03
    2.376000000000e+05 1.564621925354e-07-2.294516162597e+00 1.676380634308e-08
    9.379308764029e-01 2.160312500000e+02 3.029516344659e+00-8.339633093479e-09
    4.085884479203e-10 1.000000000000e+00 2.157000000000e+03 0.000000000000e+00
    2.400000000000e+00 0.000000000000e+00-8.381903171539e-09 9.400000000000e+01
    2.304000000000e+05 4.000000000000e+00
28 21  5 11 18  0  0.0 5.729440599680e-04-6.139089236967e-12 0.000000000000e+00
    7.600000000000e+01 1.061250000000e+02 4.449113894881e-09-3.020835254188e+00
    5.343928933144e-06 1.743777934462e-02 2.855435013771e-06 5.154312572479e+03
    2.376000000000e+05 2.458691596985e-07 1.085909790216e+00 1.769512891769e-07
    9.729017077984e-01 3.271250000000e+02-1.338742356724e+00-7.964617472573e-09
    4.146601294017e-10 1.000000000000e+00 2.157000000000e+03 0.000000000000e+00
    2.400000000000e+00 0.000000000000e+00-1.117587089539e-08 7.600000000000e+01
    2.304000000000e+05 4.000000000000e+00
